0 OPS 4682 DEB
1 18427U 65027AB  13281.39304469 -.00000158  00000-0 -55094-3 0  7906
2 18427 090.2692 245.5063 0017083 304.9834 181.2443 12.99739659355395
0 OPS 4682 DEB
1 18427U 65027AB  13283.70119337 -.00000368  00000-0 -12529-2 0  7910
2 18427 090.2688 245.5640 0016793 298.6867 181.3970 12.99742431355694
0 OPS 4682 DEB
1 18427U 65027AB  13286.84604203 -.00000132  00000-0 -46304-3 0  7928
2 18427 090.2685 245.6423 0016335 290.1022 136.6360 12.99740355356109
0 OPS 4682 DEB
1 18427U 65027AB  13289.15399486  .00000376  00000-0  12314-2 0  7931
2 18427 090.2687 245.6995 0016025 283.5044 136.2061 12.99738289356401
0 OPS 4682 DEB
1 18427U 65027AB  13291.32982514  .00000892  00000-0  29505-2 0  7947
2 18427 090.2690 245.7535 0015744 277.3088 237.5029 12.99736487356689
0 OPS 4682 DEB
1 18427U 65027AB  13293.33140258  .00001366  00000-0  45317-2 0  7958
2 18427 090.2693 245.8032 0015521 271.5136 243.5126 12.99737645356949
0 OPS 4682 DEB
1 18427U 65027AB  13295.33297054  .00001548  00000-0  51388-2 0  7965
2 18427 090.2698 245.8530 0015336 265.6425 249.5600 12.99741793357208
